{
  "norad_id": 67633,
  "name": "STARLINK-36637",
  "history": [
    {
      "epoch": "2026-03-28T06:11:36.307104Z",
      "apogee_km": 484.2408332414434,
      "perigee_km": 481.67478378305987,
      "latitude_deg": -9.439145675558346e-06,
      "longitude_deg": 116.31251999367677,
      "height_km": 482.39195701365463,
      "semi_major_axis_km": 6861.094808512252,
      "eccentricity": 0.000187,
      "inclination_deg": 43.0041,
      "raan_deg": 34.8949,
      "arg_perigee_deg": 285.5234,
      "mean_anomaly_deg": 74.5411,
      "mean_motion_rev_day": 15.27610487
    },
    {
      "epoch": "2026-03-29T02:35:38.266656Z",
      "apogee_km": 483.944226986745,
      "perigee_km": 481.9723482010904,
      "latitude_deg": -3.3542845467239443e-05,
      "longitude_deg": 164.66460867357742,
      "height_km": 482.5059189160021,
      "semi_major_axis_km": 6861.095287593917,
      "eccentricity": 0.0001437,
      "inclination_deg": 43.0043,
      "raan_deg": 30.093,
      "arg_perigee_deg": 283.4652,
      "mean_anomaly_deg": 76.6039,
      "mean_motion_rev_day": 15.27610327
    },
    {
      "epoch": "2026-03-30T03:42:08.108928Z",
      "apogee_km": 484.10809930953474,
      "perigee_km": 481.86176798845736,
      "latitude_deg": -1.302846933896125e-05,
      "longitude_deg": 141.09962756840784,
      "height_km": 483.0217280243363,
      "semi_major_axis_km": 6861.121933648996,
      "eccentricity": 0.0001637,
      "inclination_deg": 43.0025,
      "raan_deg": 24.1835,
      "arg_perigee_deg": 256.6313,
      "mean_anomaly_deg": 103.4356,
      "mean_motion_rev_day": 15.27601428
    },
    {
      "epoch": "2026-03-30T05:16:17.410080Z",
      "apogee_km": 484.11436546882123,
      "perigee_km": 481.8364761451121,
      "latitude_deg": -7.099184107050845e-06,
      "longitude_deg": 117.12843234617696,
      "height_km": 483.0274004271712,
      "semi_major_axis_km": 6861.112420806966,
      "eccentricity": 0.000166,
      "inclination_deg": 43.003,
      "raan_deg": 23.8155,
      "arg_perigee_deg": 256.0375,
      "mean_anomaly_deg": 104.0292,
      "mean_motion_rev_day": 15.27604605
    },
    {
      "epoch": "2026-03-30T05:16:17.410944Z",
      "apogee_km": 484.11422824657166,
      "perigee_km": 481.83661336736077,
      "latitude_deg": -8.624692274876166e-06,
      "longitude_deg": 117.128427109624,
      "height_km": 483.0273673218109,
      "semi_major_axis_km": 6861.112420806966,
      "eccentricity": 0.00016598,
      "inclination_deg": 43.003,
      "raan_deg": 23.8155,
      "arg_perigee_deg": 256.0375,
      "mean_anomaly_deg": 104.0292,
      "mean_motion_rev_day": 15.27604605
    },
    {
      "epoch": "2026-03-30T20:57:51.928416Z",
      "apogee_km": 483.82531323922467,
      "perigee_km": 482.16286117679465,
      "latitude_deg": 3.221583824701293e-05,
      "longitude_deg": -122.60513676879356,
      "height_km": 483.14242662873846,
      "semi_major_axis_km": 6861.131087208009,
      "eccentricity": 0.00012115,
      "inclination_deg": 43.001,
      "raan_deg": 20.1202,
      "arg_perigee_deg": 243.4259,
      "mean_anomaly_deg": 116.6469,
      "mean_motion_rev_day": 15.27598371
    },
    {
      "epoch": "2026-03-31T20:30:13.675680Z",
      "apogee_km": 483.85479170130384,
      "perigee_km": 482.27808715092397,
      "latitude_deg": 8.249916160906096e-06,
      "longitude_deg": -122.19980232993126,
      "height_km": 482.93490432503495,
      "semi_major_axis_km": 6861.203439426114,
      "eccentricity": 0.0001149,
      "inclination_deg": 43.0025,
      "raan_deg": 14.5829,
      "arg_perigee_deg": 263.3191,
      "mean_anomaly_deg": 96.753,
      "mean_motion_rev_day": 15.27574208
    },
    {
      "epoch": "2026-04-01T04:21:00.667008Z",
      "apogee_km": 484.0800677685984,
      "perigee_km": 482.024729872287,
      "latitude_deg": 3.3048935019552824e-05,
      "longitude_deg": 117.93778769842723,
      "height_km": 482.6537328607953,
      "semi_major_axis_km": 6861.189398820442,
      "eccentricity": 0.00014978,
      "inclination_deg": 43.0038,
      "raan_deg": 12.7385,
      "arg_perigee_deg": 279.8541,
      "mean_anomaly_deg": 80.2142,
      "mean_motion_rev_day": 15.27578897
    },
    {
      "epoch": "2026-04-02T02:19:11.539776Z",
      "apogee_km": 483.99470408655725,
      "perigee_km": 481.95736518205285,
      "latitude_deg": 6.20243547275193e-06,
      "longitude_deg": 142.3185939694792,
      "height_km": 482.88183147471824,
      "semi_major_axis_km": 6861.113034634304,
      "eccentricity": 0.00014847,
      "inclination_deg": 43.0032,
      "raan_deg": 7.5669,
      "arg_perigee_deg": 262.7418,
      "mean_anomaly_deg": 97.3265,
      "mean_motion_rev_day": 15.276044
    },
    {
      "epoch": "2026-04-03T19:07:15.858048Z",
      "apogee_km": 483.9204534537648,
      "perigee_km": 482.2339670008905,
      "latitude_deg": -1.5242246454107807e-05,
      "longitude_deg": -120.97466684882005,
      "height_km": 482.91634704923,
      "semi_major_axis_km": 6861.214210227327,
      "eccentricity": 0.0001229,
      "inclination_deg": 43.0043,
      "raan_deg": 357.9673,
      "arg_perigee_deg": 265.7761,
      "mean_anomaly_deg": 94.295,
      "mean_motion_rev_day": 15.27570611
    },
    {
      "epoch": "2026-04-04T01:23:53.731392Z",
      "apogee_km": 484.00583691034535,
      "perigee_km": 482.1854146700707,
      "latitude_deg": 2.166501372228958e-05,
      "longitude_deg": 143.13367192271113,
      "height_km": 482.8934189881857,
      "semi_major_axis_km": 6861.232625790208,
      "eccentricity": 0.00013266,
      "inclination_deg": 43.0043,
      "raan_deg": 356.4912,
      "arg_perigee_deg": 268.6983,
      "mean_anomaly_deg": 91.3717,
      "mean_motion_rev_day": 15.27564461
    },
    {
      "epoch": "2026-04-05T10:21:11.287296Z",
      "apogee_km": 484.2935407314253,
      "perigee_km": 481.8266659248957,
      "latitude_deg": 1.9514104653985053e-05,
      "longitude_deg": -0.29789033102458384,
      "height_km": 482.80916218061174,
      "semi_major_axis_km": 6861.197103328161,
      "eccentricity": 0.00017977,
      "inclination_deg": 43.0046,
      "raan_deg": 348.7362,
      "arg_perigee_deg": 271.3229,
      "mean_anomaly_deg": 88.7417,
      "mean_motion_rev_day": 15.27576324
    },
    {
      "epoch": "2026-04-06T02:02:44.349792Z",
      "apogee_km": 484.17800260322656,
      "perigee_km": 481.67151952067616,
      "latitude_deg": 2.7603905010767336e-05,
      "longitude_deg": 119.97788787779511,
      "height_km": 482.64130655233055,
      "semi_major_axis_km": 6861.061761061951,
      "eccentricity": 0.00018266,
      "inclination_deg": 43.004,
      "raan_deg": 345.0442,
      "arg_perigee_deg": 272.7873,
      "mean_anomaly_deg": 87.277,
      "mean_motion_rev_day": 15.27621524
    },
    {
      "epoch": "2026-04-07T09:25:52.318560Z",
      "apogee_km": 484.20699016139497,
      "perigee_km": 481.8061388053102,
      "latitude_deg": -9.138798195529997e-07,
      "longitude_deg": 0.5208922381999419,
      "height_km": 482.24959561158846,
      "semi_major_axis_km": 6861.143564483352,
      "eccentricity": 0.00017496,
      "inclination_deg": 43.0034,
      "raan_deg": 337.6594,
      "arg_perigee_deg": 296.4271,
      "mean_anomaly_deg": 63.6401,
      "mean_motion_rev_day": 15.27594204
    },
    {
      "epoch": "2026-04-08T08:58:12.768960Z",
      "apogee_km": 484.07459667246985,
      "perigee_km": 481.9322741829128,
      "latitude_deg": 2.2743634038990244e-05,
      "longitude_deg": 0.9287915771383598,
      "height_km": 482.42739629569314,
      "semi_major_axis_km": 6861.140435427691,
      "eccentricity": 0.00015612,
      "inclination_deg": 43.0023,
      "raan_deg": 332.1192,
      "arg_perigee_deg": 289.2473,
      "mean_anomaly_deg": 70.821,
      "mean_motion_rev_day": 15.27595249
    },
    {
      "epoch": "2026-04-09T08:30:33.155424Z",
      "apogee_km": 485.05927987860923,
      "perigee_km": 480.956040925902,
      "latitude_deg": -1.0069959863745588e-05,
      "longitude_deg": 1.3367977970613025,
      "height_km": 482.8381698292974,
      "semi_major_axis_km": 6861.144660402256,
      "eccentricity": 0.00029902,
      "inclination_deg": 43.0049,
      "raan_deg": 326.5789,
      "arg_perigee_deg": 268.5441,
      "mean_anomaly_deg": 91.5068,
      "mean_motion_rev_day": 15.27593838
    },
    {
      "epoch": "2026-04-10T08:02:54.077568Z",
      "apogee_km": 483.9942201031208,
      "perigee_km": 481.98665421500755,
      "latitude_deg": -1.1010418713666186e-06,
      "longitude_deg": 1.742710746822225,
      "height_km": 482.92092478623766,
      "semi_major_axis_km": 6861.127437159064,
      "eccentricity": 0.0001463,
      "inclination_deg": 43.004,
      "raan_deg": 321.0387,
      "arg_perigee_deg": 261.2138,
      "mean_anomaly_deg": 98.8548,
      "mean_motion_rev_day": 15.2759959
    },
    {
      "epoch": "2026-04-11T07:35:15.292608Z",
      "apogee_km": 483.23375452206164,
      "perigee_km": 482.85501730956,
      "latitude_deg": 2.7955077427750053e-05,
      "longitude_deg": 2.1528219801007267,
      "height_km": 482.638069919893,
      "semi_major_axis_km": 6861.181385915811,
      "eccentricity": 2.76e-05,
      "inclination_deg": 42.9984,
      "raan_deg": 315.5039,
      "arg_perigee_deg": 343.5818,
      "mean_anomaly_deg": 16.5025,
      "mean_motion_rev_day": 15.27581573
    },
    {
      "epoch": "2026-04-13T06:39:57.193056Z",
      "apogee_km": 484.15946008382525,
      "perigee_km": 481.92216722234934,
      "latitude_deg": -4.549682140343149e-05,
      "longitude_deg": 2.9646197297819494,
      "height_km": 482.9223780665903,
      "semi_major_axis_km": 6861.1778136530875,
      "eccentricity": 0.00016304,
      "inclination_deg": 43.004,
      "raan_deg": 304.4238,
      "arg_perigee_deg": 264.6529,
      "mean_anomaly_deg": 95.4136,
      "mean_motion_rev_day": 15.27582766
    },
    {
      "epoch": "2026-04-14T06:12:16.947072Z",
      "apogee_km": 484.9716867364368,
      "perigee_km": 481.03613630958716,
      "latitude_deg": -3.620680218726522e-05,
      "longitude_deg": 3.3771170399321626,
      "height_km": 482.8915402762094,
      "semi_major_axis_km": 6861.140911523012,
      "eccentricity": 0.0002868,
      "inclination_deg": 43.0029,
      "raan_deg": 298.8853,
      "arg_perigee_deg": 266.8085,
      "mean_anomaly_deg": 93.2438,
      "mean_motion_rev_day": 15.2759509
    }
  ]
}